GLOBALSTAR M063         
1 26081U 00008A   24134.88809053 -.00000037  00000+0  67331-3 0  9993
2 26081  51.9954  83.1647 0004512 273.4610 104.2867 11.86154523110192
GLOBALSTAR M062         
1 26082U 00008B   24135.17627882 -.00000060  00000+0  27145-3 0  9990
2 26082  51.9828 189.1248 0006783 340.0100  54.3632 12.43435282109487
GLOBALSTAR M060         
1 26083U 00008C   24135.21009418  .00000032  00000+0  12239-2 0  9990
2 26083  52.0014  92.5851 0003651  32.5110  72.1227 12.17632832103932
GLOBALSTAR M064         
1 26084U 00008D   24135.17282694 -.00000066  00000+0  24860-3 0  9997
2 26084  52.0009 185.9521 0001138   7.3897 352.6952 11.88519056119766
GLOBALSTAR M065         
1 31571U 07020A   24135.07223042 -.00000018  00000+0  48204-3 0  9991
2 31571  51.9915   1.0053 0010536 141.0986  23.0278 12.61970147783325
GLOBALSTAR M069         
1 31573U 07020C   24135.23469715 -.00000042  00000+0  34491-3 0  9990
2 31573  51.9958 316.3816 0001053 101.6500  69.8375 12.62272662784090
GLOBALSTAR M072         
1 31574U 07020D   24134.98377542 -.00000047  00000+0  31427-3 0  9999
2 31574  52.0102  53.0483 0000726  45.0291  85.9763 12.62271981782566
GLOBALSTAR M071         
1 31576U 07020F   24134.83038275 -.00000047  00000+0  31911-3 0  9990
2 31576  52.0076 322.7511 0000843  67.8395 305.3821 12.62265650445301
